STARLETTE               
1 07646U 75010A   22291.22665134 -.00000127  00000+0  12099-4 0  9996
2 07646  49.8262 345.6301 0205742 323.1443  35.5457 13.82313827409446
LAGEOS 1                
1 08820U 76039A   22291.32368284  .00000026  00000+0  00000+0 0  9991
2 08820 109.8522  81.0803 0045148 228.6822 148.3562  6.38664921828113
AJISAI (EGS)            
1 16908U 86061A   22290.80770562 -.00000082  00000+0  10925-3 0  9995
2 16908  50.0094 302.8172 0011337  13.8265  39.4663 12.44497574313732
COSMOS 1989 (ETALON 1)  
1 19751U 89001C   22290.71732160  .00000067  00000+0  00000+0 0  9994
2 19751  64.3343 118.1795 0023838 213.4356 102.5010  2.13156405262835
COSMOS 2024 (ETALON 2)  
1 20026U 89039C   22291.34164406 -.00000076  00000+0  00000+0 0  9995
2 20026  65.5228 356.2213 0018652 218.6505 146.6858  2.13204428259977
LAGEOS 2                
1 22195U 92070B   22290.03797392 -.00000009  00000+0  00000+0 0  9990
2 22195  52.6790  32.9539 0138343 321.9831 179.6916  6.47293433708724
STELLA                  
1 22824U 93061B   22290.87333425 -.00000040  00000+0  25599-5 0  9996
2 22824  98.9582 314.8522 0006817 152.9963 335.4082 14.27393959513841
LARES                   
1 38077U 12006A   22290.85123508 -.00000075  00000+0 -22710-3 0  9999
2 38077  69.4942  58.2348 0011116 232.9092 127.0919 12.54930783489268
